KUIPER-00251            
1 67156U 25301Z   26001.95439200  .00053016  00000+0  15272-2 0  9990
2 67156  51.8665  27.7304 0009311 156.8000 203.3408 15.35185853  3664
KUIPER-00252            
1 67157U 25301AA  26001.89464923  .00029884  00000+0  88681-3 0  9995
2 67157  51.8657  28.0787 0009851 166.9961 193.1280 15.34516721  3465
KUIPER-00261            
1 67158U 25301AB  26001.94700352  .00036484  00000+0  10404-2 0  9992
2 67158  51.8696  27.6862 0006243 140.1129 220.0317 15.35697710  3471
KUIPER-00265            
1 67159U 25301AC  26001.93618323  .00087110  00000+0  23729-2 0  9994
2 67159  51.8741  27.6145 0001986 107.3997 252.7207 15.36738766  3506
GALILEO 33              
1 67160U 25302A   25352.14605887 -.00000007  00000+0  00000+0 0  9994
2 67160  54.2406 107.2544 0008423 237.6458 122.2317  1.72906186    28
GALILEO B               
1 67161U 25302B   25365.44232658 -.00000018  00000+0  00000+0 0  9996
2 67161  54.2329 106.8331 0006490 266.0500  93.8527  1.72971438   262
GALILEO 33 (139)        
1 67162U 25302C   25353.30035962 -.00000005  00000+0  00000+0 0  9994
2 67162  54.2437 107.2220 0000255 160.7324 199.2296  1.73130298    88
STARLINK-35755          
1 67163U 25303A   25351.60835648 -.00002699  85337-5  00000+0 0  9999
2 67163  43.0100  69.0834 0011500 323.6500   9.4800 16.01284782    10
STARLINK-36201          
1 67164U 25303B   25351.60835648 -.00002699  85337-5  00000+0 0  9990
2 67164  43.0100  69.0834 0011500 323.6500   9.4800 16.01284782    11
STARLINK-36186          
1 67165U 25303C   25351.60835648 -.00002699  85337-5  00000+0 0  9991
2 67165  43.0100  69.0834 0011500 323.6500   9.4800 16.01284782    12
STARLINK-36174          
1 67166U 25303D   25351.60835648 -.00002699  85337-5  00000+0 0  9992
2 67166  43.0100  69.0834 0011500 323.6500   9.4800 16.01284782    13
STARLINK-36198          
1 67167U 25303E   25351.60835648 -.00002699  85337-5  00000+0 0  9993
2 67167  43.0100  69.0834 0011500 323.6500   9.4800 16.01284782    14
